[{"OBJECT_NAME":"HIBARI","OBJECT_ID":"2021-102F","EPOCH":"2026-03-09T16:55:51.090816","MEAN_MOTION":15.29554512,"ECCENTRICITY":0.00120742,"INCLINATION":97.3381,"RA_OF_ASC_NODE":115.826,"ARG_OF_PERICENTER":186.5211,"MEAN_ANOMALY":173.5875,"EPHEMERIS_TYPE":0,"CLASSIFICATION_TYPE":"U","NORAD_CAT_ID":49400,"ELEMENT_SET_NO":999,"REV_AT_EPOCH":23897,"BSTAR":0.00042758039,"MEAN_MOTION_DOT":0.00012206,"MEAN_MOTION_DDOT":0},{"OBJECT_NAME":"STARLINK-34290","OBJECT_ID":"2025-157AB","EPOCH":"2026-03-09T04:07:09.151680","MEAN_MOTION":15.3021731,"ECCENTRICITY":8.942e-5,"INCLINATION":53.1609,"RA_OF_ASC_NODE":348.1326,"ARG_OF_PERICENTER":117.6872,"MEAN_ANOMALY":242.422,"EPHEMERIS_TYPE":0,"CLASSIFICATION_TYPE":"U","NORAD_CAT_ID":64929,"ELEMENT_SET_NO":999,"REV_AT_EPOCH":3604,"BSTAR":0.001387457,"MEAN_MOTION_DOT":0.00040982,"MEAN_MOTION_DDOT":0}]
